NORAD_CAT_ID,OBJECT_NAME,OBJECT_TYPE,EPOCH,MEAN_MOTION,ECCENTRICITY,INCLINATION,RA_OF_ASC_NODE,ARG_OF_PERICENTER,MEAN_ANOMALY,BSTAR,MEAN_MOTION_DOT,MEAN_MOTION_DDOT,TLE_LINE0,TLE_LINE1,TLE_LINE2,SEMIMAJOR_AXIS,PERIOD,APOGEE,PERIGEE,DECAYED
55747.0,STARLINK-5539,PAYLOAD,2024-07-21 16:34:45,14.9833777,0.000288,70.0011,307.2464,268.7567,91.3263,9.2959e-05,1.017e-05,0.0,0 STARLINK-5539,1 55747U 23028G   24203.69080015  .00001017  00000-0  92959-4 0  9990,2 55747  70.0011 307.2464 0002880 268.7567  91.3263 14.98337770 76763,6950.169,96.107,574.036,570.032,0.0
55747.0,STARLINK-5539,PAYLOAD,2024-07-22 10:12:14,14.98326766,0.0002834,70.0014,305.397,262.7537,97.33,0.00011473,1.276e-05,0.0,0 STARLINK-5539,1 55747U 23028G   24204.42516484  .00001276  00000-0  11473-3 0  9994,2 55747  70.0014 305.3970 0002834 262.7537  97.3300 14.98326766 76870,6950.203,96.107,574.038,570.098,0.0
55747.0,STARLINK-5539,PAYLOAD,2024-07-23 13:26:30,14.98336572,0.0002669,70.0019,302.5375,254.8146,105.2718,0.00010395,1.148e-05,0.0,0 STARLINK-5539,1 55747U 23028G   24205.56007768  .00001148  00000-0  10395-3 0  9990,2 55747  70.0019 302.5375 0002669 254.8146 105.2718 14.98336572 77045,6950.173,96.107,573.893,570.183,0.0
55747.0,STARLINK-5539,PAYLOAD,2024-07-24 10:16:16,14.98328241,0.0003116,70.0011,300.3495,261.2242,98.8564,2.0429e-07,-9.1e-07,0.0,0 STARLINK-5539,1 55747U 23028G   24206.42796470 -.00000091  00000-0  20429-6 0  9990,2 55747  70.0011 300.3495 0003116 261.2242  98.8564 14.98328241 77177,6950.198,96.107,574.229,569.898,0.0
55747.0,STARLINK-5539,PAYLOAD,2024-07-24 16:40:48,14.98329593,0.0003051,70.0011,299.6761,261.4463,98.635,1.6254e-05,1.01e-06,0.0,0 STARLINK-5539,1 55747U 23028G   24206.69500371  .00000101  00000-0  16254-4 0  9992,2 55747  70.0011 299.6761 0003051 261.4463  98.6350 14.98329593 77215,6950.194,96.107,574.18,569.939,0.0
55747.0,STARLINK-5539,PAYLOAD,2024-07-25 07:06:00,14.98330583,0.0003242,70.0004,298.159,269.9343,90.1444,2.5613e-05,2.13e-06,0.0,0 STARLINK-5539,1 55747U 23028G   24207.29584282  .00000213  00000-0  25613-4 0  9995,2 55747  70.0004 298.1590 0003242 269.9343  90.1444 14.98330583 77305,6950.191,96.107,574.309,569.803,0.0
55747.0,STARLINK-5539,PAYLOAD,2024-07-25 10:18:16,14.98331809,0.0003193,70.0007,297.8225,269.8097,90.2696,3.8772e-05,3.7e-06,0.0,0 STARLINK-5539,1 55747U 23028G   24207.42936167  .00000370  00000-0  38772-4 0  9997,2 55747  70.0007 297.8225 0003193 269.8097  90.2696 14.98331809 77323,6950.187,96.107,574.271,569.833,0.0
55747.0,STARLINK-5539,PAYLOAD,2024-07-26 10:20:17,14.9832711,0.0002851,70.0013,295.2981,265.3911,94.6922,7.6981e-05,8.26e-06,0.0,0 STARLINK-5539,1 55747U 23028G   24208.43076226  .00000826  00000-0  76981-4 0  9990,2 55747  70.0013 295.2981 0002851 265.3911  94.6922 14.98327110 77473,6950.202,96.107,574.048,570.085,0.0
55747.0,STARLINK-5539,PAYLOAD,2024-07-26 11:56:25,14.98327769,0.0002866,70.001,295.1291,266.9827,93.1004,8.4943e-05,9.21e-06,0.0,0 STARLINK-5539,1 55747U 23028G   24208.49752169  .00000921  00000-0  84943-4 0  9996,2 55747  70.0010 295.1291 0002866 266.9827  93.1004 14.98327769 77488,6950.2,96.107,574.057,570.073,0.0
55747.0,STARLINK-5539,PAYLOAD,2024-07-27 10:22:18,14.98332193,0.0002808,70.0007,292.7724,266.8978,93.186,-5.3892e-06,-1.57e-06,0.0,0 STARLINK-5539,1 55747U 23028G   24209.43216034 -.00000157  00000-0 -53892-5 0  9990,2 55747  70.0007 292.7724 0002808 266.8978  93.1860 14.98332193 77623,6950.186,96.107,574.003,570.099,0.0
55747.0,STARLINK-5539,PAYLOAD,2024-07-27 15:10:42,14.98332425,0.0002815,70.0007,292.2674,267.1837,92.9,-2.3261e-06,-1.21e-06,0.0,0 STARLINK-5539,1 55747U 23028G   24209.63243992 -.00000121  00000-0 -23261-5 0  9993,2 55747  70.0007 292.2674 0002815 267.1837  92.9000 14.98332425 77652,6950.185,96.107,574.007,570.094,0.0
55747.0,STARLINK-5539,PAYLOAD,2024-07-28 12:00:27,14.9833236,0.0003085,69.9998,290.0789,268.5678,91.5128,3.1525e-05,2.83e-06,0.0,0 STARLINK-5539,1 55747U 23028G   24210.50031789  .00000283  00000-0  31525-4 0  9998,2 55747  69.9998 290.0789 0003085 268.5678  91.5128 14.98332360 77787,6950.186,96.107,574.195,569.906,0.0
55747.0,STARLINK-5539,PAYLOAD,2024-07-28 15:12:43,14.9833315,0.0003054,69.9998,289.7422,268.5318,91.5491,3.8452e-05,3.66e-06,0.0,0 STARLINK-5539,1 55747U 23028G   24210.63383698  .00000366  00000-0  38452-4 0  9999,2 55747  69.9998 289.7422 0003054 268.5318  91.5491 14.98333150 77807,6950.183,96.107,574.171,569.926,0.0
55747.0,STARLINK-5539,PAYLOAD,2024-07-29 12:02:28,14.98330379,0.0003103,69.9997,287.5524,271.4229,88.6574,0.00013217,1.484e-05,0.0,0 STARLINK-5539,1 55747U 23028G   24211.50171608  .00001484  00000-0  13217-3 0  9995,2 55747  69.9997 287.5524 0003103 271.4229  88.6574 14.98330379 77937,6950.192,96.107,574.213,569.9,0.0
55747.0,STARLINK-5539,PAYLOAD,2024-07-30 12:04:29,14.98334338,0.0003134,69.9994,285.0275,270.9535,89.1265,3.3563e-05,3.08e-06,0.0,0 STARLINK-5539,1 55747U 23028G   24212.50311573  .00000308  00000-0  33563-4 0  9994,2 55747  69.9994 285.0275 0003134 270.9535  89.1265 14.98334338 78087,6950.179,96.107,574.223,569.866,0.0
55747.0,STARLINK-5539,PAYLOAD,2024-07-30 21:41:17,14.98331086,0.0003111,69.9994,284.0179,272.2024,87.8779,4.4549e-05,4.39e-06,0.0,0 STARLINK-5539,1 55747U 23028G   24212.90367733  .00000439  00000-0  44549-4 0  9998,2 55747  69.9994 284.0179 0003111 272.2024  87.8779 14.98331086 78141,6950.19,96.107,574.217,569.892,0.0
55747.0,STARLINK-5539,PAYLOAD,2024-07-31 12:06:30,14.9832777,0.0002924,69.9998,282.5046,266.4795,93.603,-1.4995e-05,-2.72e-06,0.0,0 STARLINK-5539,1 55747U 23028G   24213.50452162 -.00000272  00000-0 -14995-4 0  9995,2 55747  69.9998 282.5046 0002924 266.4795  93.6030 14.98327770 78232,6950.2,96.107,574.097,570.033,0.0
55747.0,STARLINK-5539,PAYLOAD,2024-07-31 13:42:38,14.98327486,0.0002933,69.9997,282.3361,267.1326,92.9497,-1.7723e-05,-3.04e-06,0.0,0 STARLINK-5539,1 55747U 23028G   24213.57128199 -.00000304  00000-0 -17723-4 0  9990,2 55747  69.9997 282.3361 0002933 267.1326  92.9497 14.98327486 78241,6950.201,96.107,574.104,570.027,0.0
55747.0,STARLINK-5539,PAYLOAD,2024-07-31 15:18:46,14.98329164,0.0002943,69.9997,282.1676,267.8968,92.1854,1.1995e-06,-7.9e-07,0.0,0 STARLINK-5539,1 55747U 23028G   24213.63804053 -.00000079  00000-0  11995-5 0  9991,2 55747  69.9997 282.1676 0002943 267.8968  92.1854 14.98329164 78253,6950.195,96.107,574.106,570.015,0.0
55747.0,STARLINK-5539,PAYLOAD,2024-08-01 12:08:30,14.98335905,0.0002961,69.9995,279.9784,270.2666,89.8154,8.5146e-05,9.23e-06,0.0,0 STARLINK-5539,1 55747U 23028G   24214.50591392  .00000923  00000-0  85146-4 0  9992,2 55747  69.9995 279.9784 0002961 270.2666  89.8154 14.98335905 78388,6950.175,96.107,574.098,569.982,0.0
55747.0,STARLINK-5539,PAYLOAD,2024-08-01 21:45:19,14.98332179,0.0002925,69.9995,278.9679,270.7953,89.287,6.2941e-05,6.58e-06,0.0,0 STARLINK-5539,1 55747U 23028G   24214.90647534  .00000658  00000-0  62941-4 0  9999,2 55747  69.9995 278.9679 0002925 270.7953  89.2870 14.98332179 78440,6950.186,96.107,574.084,570.018,0.0
55747.0,STARLINK-5539,PAYLOAD,2024-08-02 12:10:32,14.9832507,0.0002867,69.9996,277.4524,267.1011,92.982,5.0567e-05,5.1e-06,0.0,0 STARLINK-5539,1 55747U 23028G   24215.50732032  .00000510  00000-0  50567-4 0  9992,2 55747  69.9996 277.4524 0002867 267.1011  92.9820 14.98325070 78532,6950.208,96.107,574.066,570.081,0.0
55747.0,STARLINK-5539,PAYLOAD,2024-08-02 13:46:40,14.98325578,0.0002737,69.9997,277.284,262.8856,97.1992,4.9101e-05,4.93e-06,0.0,0 STARLINK-5539,1 55747U 23028G   24215.57408036  .00000493  00000-0  49101-4 0  9995,2 55747  69.9997 277.2840 0002737 262.8856  97.1992 14.98325578 78548,6950.207,96.107,573.974,570.169,0.0
55747.0,STARLINK-5539,PAYLOAD,2024-08-02 21:47:20,14.98322728,0.0002949,69.9995,276.4424,264.2212,95.8611,7.341e-05,7.83e-06,0.0,0 STARLINK-5539,1 55747U 23028G   24215.90788174  .00000783  00000-0  73410-4 0  9998,2 55747  69.9995 276.4424 0002949 264.2212  95.8611 14.98322728 78594,6950.215,96.107,574.13,570.031,0.0
55747.0,STARLINK-5539,PAYLOAD,2024-08-03 12:12:33,14.98325171,0.0003077,69.9992,274.927,266.6323,93.4484,0.00010952,1.214e-05,0.0,0 STARLINK-5539,1 55747U 23028G   24216.50871834  .00001214  00000-0  10952-3 0  9992,2 55747  69.9992 274.9270 0003077 266.6323  93.4484 14.98325171 78682,6950.208,96.107,574.211,569.934,0.0
55747.0,STARLINK-5539,PAYLOAD,2024-08-03 13:48:41,14.98332708,0.000308,69.9992,274.7587,267.4291,92.6515,2.0457e-06,-6.9e-07,0.0,0 STARLINK-5539,1 55747U 23028G   24216.57547620 -.00000069  00000-0  20457-5 0  9993,2 55747  69.9992 274.7587 0003080 267.4291  92.6515 14.98332708 78699,6950.185,96.107,574.19,569.909,0.0
55747.0,STARLINK-5539,PAYLOAD,2024-08-03 21:49:21,14.98332994,0.0003112,69.9991,273.9172,267.0679,93.0123,-2.9959e-06,-1.29e-06,0.0,0 STARLINK-5539,1 55747U 23028G   24216.90927531 -.00000129  00000-0 -29959-5 0  9997,2 55747  69.9991 273.9172 0003112 267.0679  93.0123 14.98332994 78744,6950.184,96.107,574.212,569.886,0.0
55747.0,STARLINK-5539,PAYLOAD,2024-08-04 12:14:33,14.98333848,0.0003155,69.9989,272.4026,267.8842,92.1956,7.6718e-05,8.23e-06,0.0,0 STARLINK-5539,1 55747U 23028G   24217.51011249  .00000823  00000-0  76718-4 0  9998,2 55747  69.9989 272.4026 0003155 267.8842  92.1956 14.98333848 78833,6950.181,96.107,574.239,569.853,0.0
55747.0,STARLINK-5539,PAYLOAD,2024-08-04 13:50:41,14.98334639,0.0003152,69.9989,272.2343,267.8782,92.2016,8.4284e-05,9.13e-06,0.0,0 STARLINK-5539,1 55747U 23028G   24217.57687167  .00000913  00000-0  84284-4 0  9999,2 55747  69.9989 272.2343 0003152 267.8782  92.2016 14.98334639 78841,6950.179,96.107,574.234,569.853,0.0
55747.0,STARLINK-5539,PAYLOAD,2024-08-05 12:16:34,14.98338464,0.000317,69.9987,269.878,267.6552,92.4244,8.7657e-05,9.53e-06,0.0,0 STARLINK-5539,1 55747U 23028G   24218.51150644  .00000953  00000-0  87657-4 0  9990,2 55747  69.9987 269.8780 0003170 267.6552  92.4244 14.98338464 78989,6950.167,96.106,574.235,569.829,0.0
